OBJECT_NAME,OBJECT_ID,EPOCH,MEAN_MOTION,ECCENTRICITY,INCLINATION,RA_OF_ASC_NODE,ARG_OF_PERICENTER,MEAN_ANOMALY,EPHEMERIS_TYPE,CLASSIFICATION_TYPE,NORAD_CAT_ID,ELEMENT_SET_NO,REV_AT_EPOCH,BSTAR,MEAN_MOTION_DOT,MEAN_MOTION_DDOT
STARLINK-32220,2024-138R,2026-07-22T22:38:04.448256,15.30181440,.00014516,53.1596,41.4954,98.6221,261.4945,0,U,60370,999,11133,.10071879E-3,.2623E-4,0
STARLINK-32263,2024-138S,2026-07-22T20:06:17.559072,15.30185293,.00013511,53.1622,41.5502,76.0294,284.0857,0,U,60371,999,11122,-.72341279E-4,-.25E-4,0
STARLINK-32268,2024-138T,2026-07-22T22:59:20.362848,15.30202474,.000107,53.1607,41.5864,102.8557,257.2564,0,U,60372,999,11133,.32476747E-4,.603E-5,0
STARLINK-32223,2024-138U,2026-07-22T22:41:19.342464,15.31703551,.00013555,53.1617,40.8029,109.4315,250.6833,0,U,60373,999,11124,.4665386E-5,-.22E-5,0
STARLINK-32180,2024-138V,2026-07-22T22:21:09.575712,15.31704444,.00015277,53.1611,40.7157,82.1364,277.9811,0,U,60374,999,11134,.18359554E-4,.204E-5,0
STARLINK-32281,2024-138W,2026-07-22T23:03:17.894592,15.34404749,.00011522,53.1600,40.1901,83.8356,276.2778,0,U,60375,999,11125,.56704473E-4,.154E-4,0
STARLINK-32277,2024-138X,2026-07-22T22:42:37.682208,15.30197329,.00014196,53.1606,41.5132,87.4638,272.6526,0,U,60376,999,11133,.36425668E-4,.72E-5,0
STARLINK-32269,2024-138Y,2026-07-22T19:46:50.250144,15.31715142,.00012184,53.1605,41.4594,97.0920,263.0220,0,U,60377,999,11132,.66788466E-4,.1709E-4,0
QIANFAN-1,2024-140A,2026-07-23T06:03:32.005728,13.51021423,.00152231,88.9725,276.1912,294.2125,65.7435,0,U,60379,999,9739,.83764704E-4,.66E-6,0
QIANFAN-2,2024-140B,2026-07-23T04:58:31.250496,13.51017285,.00104915,88.9712,276.0050,261.4550,98.5412,0,U,60380,999,9744,.88717513E-4,.69E-6,0
QIANFAN-3,2024-140C,2026-07-23T05:10:18.272064,13.51018300,.00115347,88.9704,276.1199,276.8086,83.1753,0,U,60381,999,9735,.93260791E-4,.72E-6,0
QIANFAN-4,2024-140D,2026-07-23T06:21:16.205760,13.51021373,.00106862,88.9729,276.0684,264.4565,95.5367,0,U,60382,999,9748,.11332005E-3,.85E-6,0
QIANFAN-5,2024-140E,2026-07-23T05:45:53.319744,13.51011953,.00128294,88.9704,276.1419,290.1817,69.7954,0,U,60383,999,9734,.89337062E-4,.7E-6,0
QIANFAN-6,2024-140F,2026-07-23T06:15:22.351104,13.51020042,.00107786,88.9731,275.9463,271.7713,88.2204,0,U,60384,999,9754,.85105947E-4,.67E-6,0
QIANFAN-7,2024-140G,2026-07-23T06:15:06.855264,14.27869678,.00161433,88.9760,267.5363,37.6957,322.5365,0,U,60385,999,10214,.1459728E-3,.376E-5,0
QIANFAN-8,2024-140H,2026-07-23T06:27:19.549728,13.51016456,.00142288,88.9732,276.1858,274.5532,85.3993,0,U,60386,999,9739,.108505E-3,.82E-6,0
QIANFAN-9,2024-140J,2026-07-23T05:51:35.549280,13.51022156,.00139132,88.9730,276.2592,274.3430,85.6132,0,U,60387,999,9737,.83485639E-4,.66E-6,0
QIANFAN-10,2024-140K,2026-07-23T05:57:31.625280,13.51023353,.00126443,88.9741,275.6292,247.5883,112.3929,0,U,60388,999,9750,.80197307E-4,.64E-6,0
QIANFAN-11,2024-140L,2026-07-23T05:04:19.140096,13.51017206,.00119527,88.9666,276.0528,274.0993,85.8792,0,U,60389,999,9715,.75188693E-4,.61E-6,0
QIANFAN-12,2024-140M,2026-07-23T05:34:01.156512,13.51019413,.00107753,88.9709,276.1910,283.9129,76.0824,0,U,60390,999,9728,.10760706E-3,.81E-6,0
QIANFAN-13,2024-140N,2026-07-23T06:39:08.035776,13.51019525,.00106045,88.9721,276.3131,287.0389,72.9600,0,U,60391,999,9731,.91933091E-4,.71E-6,0
QIANFAN-14,2024-140P,2026-07-23T05:28:10.741440,13.51022441,.00142927,88.9700,276.1687,286.6269,73.3313,0,U,60392,999,9731,.25040735E-4,.28E-6,0
QIANFAN-15,2024-140Q,2026-07-23T05:39:57.132288,13.51013456,.00100826,88.9724,276.1774,270.2046,89.7950,0,U,60393,999,9730,.95978391E-4,.74E-6,0
QIANFAN-16,2024-140R,2026-07-23T05:22:09.026976,13.51021425,.00122722,88.9726,276.3050,291.5584,68.4259,0,U,60394,999,9721,.99445211E-4,.76E-6,0
QIANFAN-17,2024-140S,2026-07-23T05:16:10.702848,13.51017389,.00126194,88.9737,276.3757,283.9925,75.9823,0,U,60395,999,9817,.89638961E-4,.7E-6,0
QIANFAN-18,2024-140T,2026-07-23T06:33:10.645632,13.51016904,.00119932,88.9731,275.8890,263.1064,96.8722,0,U,60396,999,9757,.94206387E-4,.73E-6,0
STARLINK-11228 [DTC],2024-141A,2026-07-23T02:53:25.823328,15.69700016,.00030141,53.1594,138.6571,27.6461,332.4717,0,U,60398,999,11296,.6818759E-5,.234E-5,0
STARLINK-11182 [DTC],2024-141B,2026-07-23T05:35:34.979136,15.69712889,.00007763,53.1597,137.9278,79.8419,280.2686,0,U,60399,999,11303,.9914841E-5,.613E-5,0
STARLINK-11234 [DTC],2024-141C,2026-07-23T05:28:29.715744,15.69723780,.00009488,53.1601,137.8938,101.6351,258.4774,0,U,60400,999,11298,.28100327E-4,.2819E-4,0
STARLINK-11232 [DTC],2024-141D,2026-07-23T02:18:05.981184,15.69705083,.00014063,53.1585,138.4898,55.9005,304.2146,0,U,60401,999,11301,-.9737E-6,-.707E-5,0
